[{"OBJECT_NAME":"STARLINK-3100","OBJECT_ID":"2021-082Q","EPOCH":"2026-03-09T23:14:37.250016","MEAN_MOTION":14.98327643,"ECCENTRICITY":0.00027488,"INCLINATION":69.9982,"RA_OF_ASC_NODE":293.7423,"ARG_OF_PERICENTER":269.0008,"MEAN_ANOMALY":91.0837,"EPHEMERIS_TYPE":0,"CLASSIFICATION_TYPE":"U","NORAD_CAT_ID":49144,"ELEMENT_SET_NO":999,"REV_AT_EPOCH":24602,"BSTAR":-3.0178412e-5,"MEAN_MOTION_DOT":-4.53e-6,"MEAN_MOTION_DDOT":0},{"OBJECT_NAME":"FENGYUN 1C DEB","OBJECT_ID":"1999-025EHN","EPOCH":"2026-03-02T16:35:42.867168","MEAN_MOTION":14.48932739,"ECCENTRICITY":0.02433889,"INCLINATION":99.0734,"RA_OF_ASC_NODE":153.2496,"ARG_OF_PERICENTER":110.1255,"MEAN_ANOMALY":252.6301,"EPHEMERIS_TYPE":0,"CLASSIFICATION_TYPE":"U","NORAD_CAT_ID":37444,"ELEMENT_SET_NO":999,"REV_AT_EPOCH":66308,"BSTAR":0.00093157503,"MEAN_MOTION_DOT":5.091e-5,"MEAN_MOTION_DDOT":0}]
